NORAD_CAT_ID,OBJECT_NAME,OBJECT_TYPE,EPOCH,MEAN_MOTION,ECCENTRICITY,INCLINATION,RA_OF_ASC_NODE,ARG_OF_PERICENTER,MEAN_ANOMALY,BSTAR,MEAN_MOTION_DOT,MEAN_MOTION_DDOT,TLE_LINE0,TLE_LINE1,TLE_LINE2,SEMIMAJOR_AXIS,PERIOD,APOGEE,PERIGEE,DECAYED
53996.0,STARLINK-5131,PAYLOAD,2022-10-20 22:00:00,15.73185043,0.0002389,53.2185,17.5794,21.2761,187.8468,9.7118e-05,0.00013022,0.0,0 STARLINK-5131,1 53996U 22125AJ  22293.91667824  .00013022  00000-0  97118-4 0  9993,2 53996  53.2185  17.5794 0002389  21.2761 187.8468 15.73185043  1305,6727.938,91.534,351.41,348.196,0.0
53996.0,STARLINK-5131,PAYLOAD,2022-10-21 12:00:00,15.73189818,0.0002644,53.2188,14.6954,26.9765,247.7967,0.00035953,0.00050122,0.0,0 STARLINK-5131,1 53996U 22125AJ  22294.50001157  .00050122  00000-0  35953-3 0  9990,2 53996  53.2188  14.6954 0002644  26.9765 247.7967 15.73189818  2837,6727.924,91.534,351.5680000000001,348.01,0.0
53996.0,STARLINK-5131,PAYLOAD,2022-10-21 14:00:01,15.7318698,0.000267,53.2187,14.2822,27.1933,359.81300000000016,0.00058579,0.00082364,0.0,0 STARLINK-5131,1 53996U 22125AJ  22294.58334491  .00082364  00000-0  58579-3 0  9990,2 53996  53.2187  14.2822 0002670  27.1933 359.8130 15.73186980  1300,6727.932,91.534,351.594,348.001,0.0
53996.0,STARLINK-5131,PAYLOAD,2022-10-21 20:00:01,15.73287203,0.0002641999999999,53.2191,13.0462,22.2656,341.356,-0.00052813,-0.0007438,0.0,0 STARLINK-5131,1 53996U 22125AJ  22294.83334491 -.00074380  00000-0 -52813-3 0  9994,2 53996  53.2191  13.0462 0002642  22.2656 341.3560 15.73287203  2886,6727.647,91.528,351.289,347.7340000000001,0.0
53996.0,STARLINK-5131,PAYLOAD,2022-10-21 22:00:00,15.73283515,0.0002576,53.2194,12.6332,22.9021,92.9713,-0.00058102,-0.00081683,0.0,0 STARLINK-5131,1 53996U 22125AJ  22294.91667824 -.00081683  00000-0 -58102-3 0  9993,2 53996  53.2194  12.6332 0002576  22.9021  92.9713 15.73283515  1306,6727.656999999997,91.528,351.255,347.789,0.0
53996.0,STARLINK-5131,PAYLOAD,2022-10-22 12:00:00,15.73202818,0.0002856,53.2193,9.7476,26.7561,154.8422,0.00023794,0.00032911,0.0,0 STARLINK-5131,1 53996U 22125AJ  22295.50001157  .00032911  00000-0  23794-3 0  9997,2 53996  53.2193   9.7476 0002856  26.7561 154.8422 15.73202818  2991,6727.887,91.533,351.6740000000001,347.831,0.0
53996.0,STARLINK-5131,PAYLOAD,2022-10-22 14:00:01,15.73214271,0.0002911,53.2193,9.3357,26.4355,267.3953,0.00010301,0.00013869,0.0,0 STARLINK-5131,1 53996U 22125AJ  22295.58334491  .00013869  00000-0  10301-3 0  9996,2 53996  53.2193   9.3357 0002911  26.4355 267.3953 15.73214271  1304,6727.854,91.532,351.67800000000005,347.761,0.0
53996.0,STARLINK-5131,PAYLOAD,2022-10-22 22:00:00,15.73209453,0.0002663,53.219,7.6847,25.058000000000003,357.744,0.0002406,0.00033297,0.0,0 STARLINK-5131,1 53996U 22125AJ  22295.91667824  .00033297  00000-0  24060-3 0  9996,2 53996  53.2190   7.6847 0002663  25.0580 357.7440 15.73209453  1306,6727.868,91.533,351.525,347.94199999999995,0.0
53996.0,STARLINK-5131,PAYLOAD,2022-10-23 12:00:00,15.73217595,0.0002731999999999,53.2191,4.7996,19.329,69.1944,0.00034594,0.00048251,0.0,0 STARLINK-5131,1 53996U 22125AJ  22296.50001157  .00048251  00000-0  34594-3 0  9992,2 53996  53.2191   4.7996 0002732  19.3290  69.1944 15.73217595  3155,6727.845,91.532,351.548,347.872,0.0
53996.0,STARLINK-5131,PAYLOAD,2022-10-23 14:00:01,15.73226752,0.0002767,53.2194,4.3875,17.8115,182.951,0.00029935,0.00041653,0.0,0 STARLINK-5131,1 53996U 22125AJ  22296.58334491  .00041653  00000-0  29935-3 0  9992,2 53996  53.2194   4.3875 0002767  17.8115 182.9510 15.73226752  1300,6727.819,91.532,351.545,347.82199999999995,0.0
53996.0,STARLINK-5131,PAYLOAD,2022-10-23 20:00:01,15.7329065,0.0002717,53.2192,3.1494,16.2061,161.2776,-0.0010811,-0.00150287,0.0,0 STARLINK-5131,1 53996U 22125AJ  22296.83334491 -.00150287  00000-0 -10811-2 0  9998,2 53996  53.2192   3.1494 0002717  16.2061 161.2776 15.73290650  3203,6727.637,91.528,351.33,347.6740000000001,0.0
53996.0,STARLINK-5131,PAYLOAD,2022-10-23 22:00:00,15.73256743,0.0002634,53.2195,2.7364,16.3738,273.3666,-0.00087654,-0.00122191,0.0,0 STARLINK-5131,1 53996U 22125AJ  22296.91667824 -.00122191  00000-0 -87654-3 0  9999,2 53996  53.2195   2.7364 0002634  16.3738 273.3666 15.73256743  1304,6727.733,91.53,351.37,347.826,0.0
53996.0,STARLINK-5131,PAYLOAD,2022-10-24 12:00:00,15.73032045,0.0002824,53.2192,359.8513,13.8779,341.4778,0.00072502,0.00101647,0.0,0 STARLINK-5131,1 53996U 22125AJ  22297.50001157  .00101647  00000-0  72502-3 0  9993,2 53996  53.2192 359.8513 0002824  13.8779 341.4778 15.73032045  3301,6728.374,91.543,352.139,348.339,0.0
53996.0,STARLINK-5131,PAYLOAD,2022-10-24 14:00:01,15.73013702,0.0002877,53.2192,359.4394,12.8259,94.7254,0.0012873,0.00182578,0.0,0 STARLINK-5131,1 53996U 22125AJ  22297.58334491  .00182578  00000-0  12873-2 0  9997,2 53996  53.2192 359.4394 0002877  12.8259  94.7254 15.73013702  1308,6728.426,91.544,352.227,348.356,0.0
53996.0,STARLINK-5131,PAYLOAD,2022-10-24 22:00:00,15.73141047,0.0002741,53.2189,357.7885,15.0062,181.3254,0.00029313,0.00040618,0.0,0 STARLINK-5131,1 53996U 22125AJ  22297.91667824  .00040618  00000-0  29313-3 0  9999,2 53996  53.2189 357.7885 0002741  15.0062 181.3254 15.73141047  1304,6728.063,91.537,351.772,348.084,0.0
53996.0,STARLINK-5131,PAYLOAD,2022-10-25 12:00:00,15.73198434,0.0002964,53.2188,354.9039,16.4113,245.4837,0.00035928,0.00050107,0.0,0 STARLINK-5131,1 53996U 22125AJ  22298.50001157  .00050107  00000-0  35928-3 0  9999,2 53996  53.2188 354.9039 0002964  16.4113 245.4837 15.73198434  3462,6727.9,91.533,351.759,347.77,0.0
53996.0,STARLINK-5131,PAYLOAD,2022-10-25 14:00:01,15.73201812,0.0002991,53.2188,354.4918,15.406,358.7245,0.00040744,0.00056962,0.0,0 STARLINK-5131,1 53996U 22125AJ  22298.58334491  .00056962  00000-0  40744-3 0  9994,2 53996  53.2188 354.4918 0002991  15.4060 358.7245 15.73201812  1300,6727.89,91.533,351.767,347.74300000000005,0.0
53996.0,STARLINK-5131,PAYLOAD,2022-10-25 20:00:01,15.73258583,0.0002841,53.2189,353.2533,13.9564,336.8841,-0.00061491,-0.00086278,0.0,0 STARLINK-5131,1 53996U 22125AJ  22298.83334491 -.00086278  00000-0 -61491-3 0  9999,2 53996  53.2189 353.2533 0002841  13.9564 336.8841 15.73258583  3518,6727.728,91.53,351.505,347.682,0.0
53996.0,STARLINK-5131,PAYLOAD,2022-10-25 22:00:01,15.73206315,0.0002773999999999,53.2191,352.8403,12.9215,90.2424,5.6051e-05,7.254e-05,0.0,0 STARLINK-5131,1 53996U 22125AJ  22298.91668981  .00007254  00000-0  56051-4 0  9994,2 53996  53.2191 352.8403 0002774  12.9215  90.2424 15.73206315  1308,6727.877,91.533,351.608,347.876,0.0
53996.0,STARLINK-5131,PAYLOAD,2022-10-26 04:00:00,15.73228034,0.0002783,53.2191,351.6028,14.9447,64.8511,0.00014826,0.00020263,0.0,0 STARLINK-5131,1 53996U 22125AJ  22299.16667824  .00020263  00000-0  14826-3 0  9995,2 53996  53.2191 351.6028 0002783  14.9447  64.8511 15.73228034  3574,6727.815,91.532,351.55300000000005,347.80800000000005,0.0
53996.0,STARLINK-5131,PAYLOAD,2022-10-26 14:00:01,15.73166253,0.0003106999999999,53.2187,349.5432,10.7587,270.2577,0.00066507,0.00093643,0.0,0 STARLINK-5131,1 53996U 22125AJ  22299.58334491  .00093643  00000-0  66507-3 0  9997,2 53996  53.2187 349.5432 0003107  10.7587 270.2577 15.73166253  3630,6727.991,91.535,351.94699999999995,347.766,0.0
53996.0,STARLINK-5131,PAYLOAD,2022-10-26 20:00:01,15.73260739,0.0002893,53.2183,348.3045,9.0653,248.6311,-0.00060064,-0.00084318,0.0,0 STARLINK-5131,1 53996U 22125AJ  22299.83334491 -.00084318  00000-0 -60064-3 0  9998,2 53996  53.2183 348.3045 0002893   9.0653 248.6311 15.73260739  3672,6727.722,91.53,351.533,347.641,0.0
53996.0,STARLINK-5131,PAYLOAD,2022-10-26 22:00:00,15.73235943,0.0002798,53.2184,347.8917,8.3307,1.6154,-0.00034846,-0.00049326,0.0,0 STARLINK-5131,1 53996U 22125AJ  22299.91667824 -.00049326  00000-0 -34846-3 0  9995,2 53996  53.2184 347.8917 0002798   8.3307   1.6154 15.73235943  1306,6727.793000000002,91.531,351.54,347.775,0.0
53996.0,STARLINK-5131,PAYLOAD,2022-10-27 04:00:00,15.73223912,0.0002773,53.2185,346.6544,6.8497,339.8137,-0.00010389,-0.00015194,0.0,0 STARLINK-5131,1 53996U 22125AJ  22300.16667824 -.00015194  00000-0 -10389-3 0  9997,2 53996  53.2185 346.6544 0002773   6.8497 339.8137 15.73223912  3724,6727.8269999999975,91.532,351.55800000000005,347.826,0.0
53996.0,STARLINK-5131,PAYLOAD,2022-10-27 14:00:01,15.73160408,0.0003111,53.2183,344.5946,4.5419,183.39,0.0007853,0.00110885,0.0,0 STARLINK-5131,1 53996U 22125AJ  22300.58335648  .00110885  00000-0  78530-3 0  9992,2 53996  53.2183 344.5946 0003111   4.5419 183.3900 15.73160408  1303,6728.0080000000025,91.535,351.966,347.78,0.0
53996.0,STARLINK-5131,PAYLOAD,2022-10-27 18:00:00,15.73231473,0.0003086999999999,53.2183,343.7688,5.4860000000000015,46.826,2.9903e-05,3.582e-05,0.0,0 STARLINK-5131,1 53996U 22125AJ  22300.75001157  .00003582  00000-0  29903-4 0  9992,2 53996  53.2183 343.7688 0003087   5.4860  46.8260 15.73231473  3821,6727.805,91.531,351.747,347.594,0.0
53996.0,STARLINK-5131,PAYLOAD,2022-10-27 22:00:00,15.73250554,0.0002953,53.2187,342.9430000000001,7.3496,269.4522,-0.00017077,-0.00024577,0.0,0 STARLINK-5131,1 53996U 22125AJ  22300.91667824 -.00024577  00000-0 -17077-3 0  9996,2 53996  53.2187 342.9430 0002953   7.3496 269.4522 15.73250554  1304,6727.751,91.53,351.603,347.629,0.0
53996.0,STARLINK-5131,PAYLOAD,2022-10-28 14:00:01,15.73211838,0.0003331999999999,53.2184,339.6456,11.1873,83.6268,-0.00015418,-0.00022222,0.0,0 STARLINK-5131,1 53996U 22125AJ  22301.58335648 -.00022222  00000-0 -15418-3 0  9998,2 53996  53.2184 339.6456 0003332  11.1873  83.6268 15.73211838  1301,6727.861,91.532,351.968,347.485,0.0
53996.0,STARLINK-5131,PAYLOAD,2022-10-28 20:00:01,15.73190689,0.0003139,53.2183,338.4068,13.1866,58.2726,6.3434e-05,8.287e-05,0.0,0 STARLINK-5131,1 53996U 22125AJ  22301.83334491  .00008287  00000-0  63434-4 0  9996,2 53996  53.2183 338.4068 0003139  13.1866  58.2726 15.73190689  3999,6727.922,91.534,351.899,347.675,0.0
